{"type": "FeatureCollection", "features": [ {"type": "Feature", "properties": {"norad_id": 32384, "name": "GPS BIIRM-5 (PRN 29)", "group": "gps-ops", "lat": -48.088319255619226, "lon": -129.6148596399101, "alt_km": 20245.232536285595, "timestamp": "2025-12-24T22:42:22.289731+00:00", "meta": {"OBJECT_NAME": "GPS BIIRM-5 (PRN 29)", "OBJECT_ID": "2007-062A", "EPOCH": "2025-12-24T04:33:25.319232", "MEAN_MOTION": 2.00549289, "ECCENTRICITY": 0.00313762, "INCLINATION": 55.1723, "RA_OF_ASC_NODE": 281.1867, "ARG_OF_PERICENTER": 162.3601, "MEAN_ANOMALY": 306.4071, "EPHEMERIS_TYPE": 0, "CLASSIFICATION_TYPE": "U", "NORAD_CAT_ID": 32384, "ELEMENT_SET_NO": 999, "REV_AT_EPOCH": 13200, "BSTAR": 0, "MEAN_MOTION_DOT": -2.2e-07, "MEAN_MOTION_DDOT": 0}, "tle": {"line1": "1 32384U 07062A   25358.18987638 -.00000022  00000+0  00000+0 0  9991", "line2": "2 32384  55.1723 281.1867 0031376 162.3601 306.4071  2.00549289132003"}}, "geometry": {"type": "Point", "coordinates": [-129.6148596399101, -48.088319255619226]}}, {"type": "Feature", "properties": {"norad_id": 32711, "name": "GPS BIIRM-6 (PRN 07)", "group": "gps-ops", "lat": -30.272129670187358, "lon": 1.518952393703067, "alt_km": 19703.1022515208, "timestamp": "2025-12-24T22:42:22.289742+00:00", "meta": {"OBJECT_NAME": "GPS BIIRM-6 (PRN 07)", "OBJECT_ID": "2008-012A", "EPOCH": "2025-12-23T15:24:58.036896", "MEAN_MOTION": 2.00566087, "ECCENTRICITY": 0.0202929, "INCLINATION": 54.4783, "RA_OF_ASC_NODE": 156.9378, "ARG_OF_PERICENTER": 245.0761, "MEAN_ANOMALY": 112.7872, "EPHEMERIS_TYPE": 0, "CLASSIFICATION_TYPE": "U", "NORAD_CAT_ID": 32711, "ELEMENT_SET_NO": 999, "REV_AT_EPOCH": 13023, "BSTAR": 0, "MEAN_MOTION_DOT": 8.4e-07, "MEAN_MOTION_DDOT": 0}, "tle": {"line1": "1 32711U 08012A   25357.64233839  .00000084  00000+0  00000+0 0  9995", "line2": "2 32711  54.4783 156.9378 0202929 245.0761 112.7872  2.00566087130236"}}, "geometry": {"type": "Point", "coordinates": [1.518952393703067, -30.272129670187358]}}, {"type": "Feature", "properties": {"norad_id": 35752, "name": "GPS BIIRM-8 (PRN 05)", "group": "gps-ops", "lat": -45.548836950613264, "lon": -102.43425115692575, "alt_km": 20314.130276256565, "timestamp": "2025-12-24T22:42:22.289754+00:00", "meta": {"OBJECT_NAME": "GPS BIIRM-8 (PRN 05)", "OBJECT_ID": "2009-043A", "EPOCH": "2025-12-24T04:14:37.985856", "MEAN_MOTION": 2.00564964, "ECCENTRICITY": 0.00515883, "INCLINATION": 56.0988, "RA_OF_ASC_NODE": 34.3322, "ARG_OF_PERICENTER": 81.7352, "MEAN_ANOMALY": 321.9432, "EPHEMERIS_TYPE": 0, "CLASSIFICATION_TYPE": "U", "NORAD_CAT_ID": 35752, "ELEMENT_SET_NO": 999, "REV_AT_EPOCH": 11985, "BSTAR": 0, "MEAN_MOTION_DOT": -5.1e-07, "MEAN_MOTION_DDOT": 0}, "tle": {"line1": "1 35752U 09043A   25358.17682854 -.00000051  00000+0  00000+0 0  9997", "line2": "2 35752  56.0988  34.3322 0051588  81.7352 321.9432  2.00564964119854"}}, "geometry": {"type": "Point", "coordinates": [-102.43425115692575, -45.548836950613264]}}, {"type": "Feature", "properties": {"norad_id": 36585, "name": "GPS BIIF-1  (PRN 25)", "group": "gps-ops", "lat": -3.51776311077007, "lon": -146.93973888984343, "alt_km": 20062.395625854417, "timestamp": "2025-12-24T22:42:22.289765+00:00", "meta": {"OBJECT_NAME": "GPS BIIF-1  (PRN 25)", "OBJECT_ID": "2010-022A", "EPOCH": "2025-12-24T05:28:23.943360", "MEAN_MOTION": 2.00553772, "ECCENTRICITY": 0.01265509, "INCLINATION": 54.2984, "RA_OF_ASC_NODE": 215.6106, "ARG_OF_PERICENTER": 65.2201, "MEAN_ANOMALY": 133.4406, "EPHEMERIS_TYPE": 0, "CLASSIFICATION_TYPE": "U", "NORAD_CAT_ID": 36585, "ELEMENT_SET_NO": 999, "REV_AT_EPOCH": 11408, "BSTAR": 0, "MEAN_MOTION_DOT": 7.3e-07, "MEAN_MOTION_DDOT": 0}, "tle": {"line1": "1 36585U 10022A   25358.22805490  .00000073  00000+0  00000+0 0  9993", "line2": "2 36585  54.2984 215.6106 0126550  65.2201 133.4406  2.00553772114083"}}, "geometry": {"type": "Point", "coordinates": [-146.93973888984343, -3.51776311077007]}}, {"type": "Feature", "properties": {"norad_id": 38833, "name": "GPS BIIF-3  (PRN 24)", "group": "gps-ops", "lat": 53.0966166698502, "lon": -108.926356386484, "alt_km": 19777.253378067897, "timestamp": "2025-12-24T22:42:22.289776+00:00", "meta": {"OBJECT_NAME": "GPS BIIF-3  (PRN 24)", "OBJECT_ID": "2012-053A", "EPOCH": "2025-12-23T07:42:27.651168", "MEAN_MOTION": 2.00565064, "ECCENTRICITY": 0.01760539, "INCLINATION": 53.5596, "RA_OF_ASC_NODE": 150.8054, "ARG_OF_PERICENTER": 64.149, "MEAN_ANOMALY": 297.6308, "EPHEMERIS_TYPE": 0, "CLASSIFICATION_TYPE": "U", "NORAD_CAT_ID": 38833, "ELEMENT_SET_NO": 999, "REV_AT_EPOCH": 9591, "BSTAR": 0, "MEAN_MOTION_DOT": 7.4e-07, "MEAN_MOTION_DDOT": 0}, "tle": {"line1": "1 38833U 12053A   25357.32115337  .00000074  00000+0  00000+0 0  9992", "line2": "2 38833  53.5596 150.8054 0176053  64.1490 297.6308  2.00565064 95916"}}, "geometry": {"type": "Point", "coordinates": [-108.926356386484, 53.0966166698502]}}, {"type": "Feature", "properties": {"norad_id": 39166, "name": "GPS BIIF-4  (PRN 27)", "group": "gps-ops", "lat": -11.007450859458851, "lon": 103.99622883438715, "alt_km": 20482.65134348049, "timestamp": "2025-12-24T22:42:22.289787+00:00", "meta": {"OBJECT_NAME": "GPS BIIF-4  (PRN 27)", "OBJECT_ID": "2013-023A", "EPOCH": "2025-12-24T04:22:45.403680", "MEAN_MOTION": 2.0056459, "ECCENTRICITY": 0.01385961, "INCLINATION": 54.6422, "RA_OF_ASC_NODE": 276.1031, "ARG_OF_PERICENTER": 48.7604, "MEAN_ANOMALY": 312.4729, "EPHEMERIS_TYPE": 0, "CLASSIFICATION_TYPE": "U", "NORAD_CAT_ID": 39166, "ELEMENT_SET_NO": 999, "REV_AT_EPOCH": 9237, "BSTAR": 0, "MEAN_MOTION_DOT": -1.6e-07, "MEAN_MOTION_DDOT": 0}, "tle": {"line1": "1 39166U 13023A   25358.18246995 -.00000016  00000+0  00000+0 0  9997", "line2": "2 39166  54.6422 276.1031 0138596  48.7604 312.4729  2.00564590 92371"}}, "geometry": {"type": "Point", "coordinates": [103.99622883438715, -11.007450859458851]}}, {"type": "Feature", "properties": {"norad_id": 39533, "name": "GPS BIIF-5  (PRN 30)", "group": "gps-ops", "lat": -11.573430532905158, "lon": -14.884118357438256, "alt_km": 20004.819092189828, "timestamp": "2025-12-24T22:42:22.289799+00:00", "meta": {"OBJECT_NAME": "GPS BIIF-5  (PRN 30)", "OBJECT_ID": "2014-008A", "EPOCH": "2025-12-23T16:16:25.020768", "MEAN_MOTION": 2.00548852, "ECCENTRICITY": 0.00795532, "INCLINATION": 53.5993, "RA_OF_ASC_NODE": 156.4877, "ARG_OF_PERICENTER": 225.9161, "MEAN_ANOMALY": 133.4108, "EPHEMERIS_TYPE": 0, "CLASSIFICATION_TYPE": "U", "NORAD_CAT_ID": 39533, "ELEMENT_SET_NO": 999, "REV_AT_EPOCH": 8616, "BSTAR": 0, "MEAN_MOTION_DOT": 8.2e-07, "MEAN_MOTION_DDOT": 0}, "tle": {"line1": "1 39533U 14008A   25357.67806737  .00000082  00000+0  00000+0 0  9990", "line2": "2 39533  53.5993 156.4877 0079553 225.9161 133.4108  2.00548852 86167"}}, "geometry": {"type": "Point", "coordinates": [-14.884118357438256, -11.573430532905158]}}, {"type": "Feature", "properties": {"norad_id": 39741, "name": "GPS BIIF-6  (PRN 06)", "group": "gps-ops", "lat": -7.5892889921387825, "lon": -26.75740139401788, "alt_km": 20094.378482835473, "timestamp": "2025-12-24T22:42:22.289810+00:00", "meta": {"OBJECT_NAME": "GPS BIIF-6  (PRN 06)", "OBJECT_ID": "2014-026A", "EPOCH": "2025-12-23T23:04:28.187040", "MEAN_MOTION": 2.00560551, "ECCENTRICITY": 0.0039456, "INCLINATION": 56.5792, "RA_OF_ASC_NODE": 338.3401, "ARG_OF_PERICENTER": 319.3147, "MEAN_ANOMALY": 40.3961, "EPHEMERIS_TYPE": 0, "CLASSIFICATION_TYPE": "U", "NORAD_CAT_ID": 39741, "ELEMENT_SET_NO": 999, "REV_AT_EPOCH": 8502, "BSTAR": 0, "MEAN_MOTION_DOT": -6e-07, "MEAN_MOTION_DDOT": 0}, "tle": {"line1": "1 39741U 14026A   25357.96143735 -.00000060  00000+0  00000+0 0  9992", "line2": "2 39741  56.5792 338.3401 0039456 319.3147  40.3961  2.00560551 85029"}}, "geometry": {"type": "Point", "coordinates": [-26.75740139401788, -7.5892889921387825]}}, {"type": "Feature", "properties": {"norad_id": 40105, "name": "GPS BIIF-7  (PRN 09)", "group": "gps-ops", "lat": -51.09149528055165, "lon": 36.182301154309634, "alt_km": 20271.254909869465, "timestamp": "2025-12-24T22:42:22.289821+00:00", "meta": {"OBJECT_NAME": "GPS BIIF-7  (PRN 09)", "OBJECT_ID": "2014-045A", "EPOCH": "2025-12-23T13:11:32.096256", "MEAN_MOTION": 2.00573211, "ECCENTRICITY": 0.00324114, "INCLINATION": 55.2352, "RA_OF_ASC_NODE": 95.4677, "ARG_OF_PERICENTER": 120.1575, "MEAN_ANOMALY": 240.1743, "EPHEMERIS_TYPE": 0, "CLASSIFICATION_TYPE": "U", "NORAD_CAT_ID": 40105, "ELEMENT_SET_NO": 999, "REV_AT_EPOCH": 8255, "BSTAR": 0, "MEAN_MOTION_DOT": 8e-08, "MEAN_MOTION_DDOT": 0}, "tle": {"line1": "1 40105U 14045A   25357.54967704  .00000008  00000+0  00000+0 0  9994", "line2": "2 40105  55.2352  95.4677 0032411 120.1575 240.1743  2.00573211 82556"}}, "geometry": {"type": "Point", "coordinates": [36.182301154309634, -51.09149528055165]}}, {"type": "Feature", "properties": {"norad_id": 40294, "name": "GPS BIIF-8  (PRN 03)", "group": "gps-ops", "lat": 13.518808022286, "lon": 46.72045998516687, "alt_km": 20081.99849259461, "timestamp": "2025-12-24T22:42:22.289832+00:00", "meta": {"OBJECT_NAME": "GPS BIIF-8  (PRN 03)", "OBJECT_ID": "2014-068A", "EPOCH": "2025-12-23T10:16:22.808064", "MEAN_MOTION": 2.00565491, "ECCENTRICITY": 0.00608386, "INCLINATION": 56.8656, "RA_OF_ASC_NODE": 37.7327, "ARG_OF_PERICENTER": 68.9718, "MEAN_ANOMALY": 291.747, "EPHEMERIS_TYPE": 0, "CLASSIFICATION_TYPE": "U", "NORAD_CAT_ID": 40294, "ELEMENT_SET_NO": 999, "REV_AT_EPOCH": 8168, "BSTAR": 0, "MEAN_MOTION_DOT": -4.8e-07, "MEAN_MOTION_DDOT": 0}, "tle": {"line1": "1 40294U 14068A   25357.42804176 -.00000048  00000+0  00000+0 0  9993", "line2": "2 40294  56.8656  37.7327 0060838  68.9718 291.7470  2.00565491 81685"}}, "geometry": {"type": "Point", "coordinates": [46.72045998516687, 13.518808022286]}}]}